Skip Page Navigation
NASA Logo - Jet Propulsion Laboratory				+ View the NASA Portal
+ Center for Near-Earth Object Studies			
JPL Home	Earth	Solar System	Stars & Galaxies	Technology

JPL Solar System Dynamics
BODIES		ORBITS		EPHEMERIDES		TOOLS		PHYSICAL DATA		DISCOVERY		FAQ		SITE MAP

IMPORTANT: The SSD Announcement email list is now available. Major changes are coming in the near future, including possible hostname and/or URL changes. To be notified of such changes, subscribe to this email list.

Please visit this page for more details.


Don't show this message again
HORIZONS Web-Interface
This tool provides a web-based limited interface to JPL's HORIZONS system which can be used to generate ephemerides for solar-system bodies. Full access to HORIZONS features is available via the primary telnet interface. HORIZONS system news shows recent changes and improvements. A web-interface tutorial is available to assist new users.
Current Settings
Ephemeris Type [change] : 	ELEMENTS
Target Body [change] : 	Elara (JVII) [507]
Center [change] : 	Jupiter System Barycenter [500@5]
Time Span [change] : 	Start=JD 2458850.0, Stop=JD 2464329.0, Intervals=500
Table Settings [change] : 	CSV format=YES
Display/Output [change] : 	default (formatted HTML)
Object Data Page
 Revised: Dec 04, 2019            Elara   / (Jupiter)                       507

 SATELLITE PHYSICAL PROPERTIES:
  Radius (km)             = 40 +- 10        Density (g cm^-3)   =              
  Mass (10^20 kg )        =                 Geometric Albedo    =   0.03
                                            V(1,0)              = +10.07

 SATELLITE ORBITAL DATA:
  Semi-major axis, a (km) = 11737 (10^3)    Orbital period      = 259.6528 d
  Eccentricity, e         =   0.207         Rotational period   = 0.5 d 
  Inclination, i  (deg)   =  28             Local invar ref. pln= Sun
Results
*******************************************************************************
Ephemeris / WWW_USER Fri May 15 20:11:15 2020 Pasadena, USA      / Horizons    
*******************************************************************************
Target body name: Elara (507)                     {source: jup343_merged}
Center body name: Jupiter Barycenter (5)          {source: jup343_merged}
Center-site name: BODY CENTER
*******************************************************************************
Start time      : A.D. 2020-Jan-01 12:00:00.0000 TDB
Stop  time      : A.D. 2035-Jan-01 12:00:00.0000 TDB
Step-size       : 500 steps
*******************************************************************************
Center geodetic : 0.00000000,0.00000000,0.0000000 {E-lon(deg),Lat(deg),Alt(km)}
Center cylindric: 0.00000000,0.00000000,0.0000000 {E-lon(deg),Dxy(km),Dz(km)}
Center radii    : (undefined)                                                  
Keplerian GM    : 2.8253458408338699E-07 au^3/d^2
Output units    : AU-D, deg, Julian Day Number (Tp)                            
Output type     : GEOMETRIC osculating elements
Output format   : 10
Reference frame : ICRF/J2000.0                                                 
Coordinate systm: Ecliptic and Mean Equinox of Reference Epoch                 
*******************************************************************************
            JDTDB,            Calendar Date (TDB),                     EC,                     QR,                     IN,                     OM,                      W,                     Tp,                      N,                     MA,                     TA,                      A,                     AD,                     PR,
**************************************************************************************************************************************************************************************************************************************************************************************************************************************************
$$SOE
2463507.150000000, A.D. 2032-Oct-01 15:36:00.0000,  2.494570343632364E-01,  5.847119573924222E-02,  2.901713041713258E+01,  7.578876074904659E+01,  2.367295927095822E+02,  2.463547949842632E+06,  1.400582887768696E+00,  3.028564385866543E+02,  2.751450883054957E+02,  7.790519452758449E-02,  9.733919331592676E-02,  2.570358406802507E+02,
2463518.108000000, A.D. 2032-Oct-12 14:35:31.2000,  2.504735343982997E-01,  5.852129795945375E-02,  2.899787288907292E+01,  7.580173325748409E+01,  2.363561819177704E+02,  2.463547787421751E+06,  1.395943927907863E+00,  3.185691914231612E+02,  2.945825575661697E+02,  7.807769391101407E-02,  9.763408986257439E-02,  2.578900146365773E+02,
2463529.066000000, A.D. 2032-Oct-23 13:35:02.4000,  2.515410650354260E-01,  5.857402476008170E-02,  2.896984167672386E+01,  7.579958525559516E+01,  2.359655665046804E+02,  2.463547620283920E+06,  1.391082241915864E+00,  3.341894651273187E+02,  3.170589796026670E+02,  7.825950365981552E-02,  9.794498255954934E-02,  2.587913130888588E+02,
2463540.024000000, A.D. 2032-Nov-03 12:34:33.6000,  2.521699422036438E-01,  5.860497981528968E-02,  2.894065754532060E+01,  7.577093930171307E+01,  2.356696112079191E+02,  2.463547486219930E+06,  1.388228751138943E+00,  3.496407317456809E+02,  3.421910675466073E+02,  7.836670805661647E-02,  9.812843629794327E-02,  2.593232561309839E+02,
2463550.982000000, A.D. 2032-Nov-14 11:34:04.8000,  2.518341444997791E-01,  5.860946345709821E-02,  2.891981676811968E+01,  7.571795559051874E+01,  2.354565722983528E+02,  2.463547378343937E+06,  1.389004485298327E+00,  5.005494435141292E+00,  8.640941553796505E+00,  7.833752773696434E-02,  9.806559201683047E-02,  2.591784287310490E+02,
2463561.940000000, A.D. 2032-Nov-25 10:33:36.0000,  2.506237827206453E-01,  5.859194563785389E-02,  2.891283824405849E+01,  7.565692773074898E+01,  2.352338511255892E+02,  2.463547259918872E+06,  1.393000972758260E+00,  2.044936729210450E+01,  3.441169457947267E+01,  7.818762363526117E-02,  9.778330163266848E-02,  2.584348518344316E+02,
2463572.898000000, A.D. 2032-Dec-06 09:33:07.2000,  2.491898675497868E-01,  5.856471295611676E-02,  2.891730929975957E+01,  7.560838542990734E+01,  2.349870897411344E+02,  2.463547129783754E+06,  1.397975625349042E+00,  3.602333822064543E+01,  5.781876873458577E+01,  7.800202797609450E-02,  9.743934299607225E-02,  2.575152194875475E+02,
2463583.856000000, A.D. 2032-Dec-17 08:32:38.4000,  2.480195453122482E-01,  5.855575094145529E-02,  2.892442477399133E+01,  7.558447582793937E+01,  2.348176540362787E+02,  2.463547030959920E+06,  1.401567237280004E+00,  5.161276968850864E+01,  7.813693123723409E+01,  7.786871397577701E-02,  9.718167701009872E-02,  2.568553191202196E+02,
2463594.814000000, A.D. 2032-Dec-28 07:32:09.6000,  2.471057542385684E-01,  5.860059294196841E-02,  2.892388577431351E+01,  7.558432436384408E+01,  2.348352287300909E+02,  2.463546999899377E+06,  1.402511373009570E+00,  6.705981991403276E+01,  9.545775459781649E+01,  7.783376386773062E-02,  9.706693479349283E-02,  2.566824105158565E+02,
2463605.772000000, A.D. 2033-Jan-08 06:31:40.8000,  2.461805373688724E-01,  5.872322225561174E-02,  2.890794795883713E+01,  7.559679054988943E+01,  2.350778261178294E+02,  2.463547038178518E+06,  1.400698431797309E+00,  8.226837164363502E+01,  1.102658647993384E+02,  7.790091018696242E-02,  9.707859811831311E-02,  2.570146377176030E+02,
2463616.730000000, A.D. 2033-Jan-19 05:31:12.0000,  2.450167647830275E-01,  5.892530440432511E-02,  2.887310050059998E+01,  7.560602609822388E+01,  2.355142361784465E+02,  2.463547124083934E+06,  1.396727391487248E+00,  9.722048957888440E+01,  1.231356224661304E+02,  7.804849386806680E-02,  9.717168333180846E-02,  2.577453568922055E+02,
2463627.688000000, A.D. 2033-Jan-30 04:30:43.2000,  2.435591296850766E-01,  5.918719610983973E-02,  2.881998027919706E+01,  7.559622379375817E+01,  2.360804807763718E+02,  2.463547235170778E+06,  1.391487370862097E+00,  1.119490958128666E+02,  1.345905099960662E+02,  7.824431285051898E-02,  9.730142959119824E-02,  2.587159664819393E+02,
2463638.646000000, A.D. 2033-Feb-10 03:30:14.4000,  2.419167944834195E-01,  5.947510015598625E-02,  2.875248512307358E+01,  7.555470960435576E+01,  2.367116286753123E+02,  2.463547363495093E+06,  1.385897082196573E+00,  1.265081572066363E+02,  1.450583835170489E+02,  7.845458087342556E-02,  9.743406159086487E-02,  2.597595482555018E+02,
2463649.604000000, A.D. 2033-Feb-21 02:29:45.6000,  2.403003964092978E-01,  5.974934839034666E-02,  2.867663134332502E+01,  7.547362816456977E+01,  2.373594994817220E+02,  2.463547521211802E+06,  1.380770596004990E+00,  1.409529123026130E+02,  1.548696265045233E+02,  7.864865021377238E-02,  9.754795203719809E-02,  2.607239761924210E+02,
2463660.562000000, A.D. 2033-Mar-04 01:29:16.8000,  2.389503198576968E-01,  5.997185501276230E-02,  2.859942089291158E+01,  7.535060904504913E+01,  2.379992622704453E+02,  2.463547739215607E+06,  1.376755209371556E+00,  1.553293561489147E+02,  1.642711829004988E+02,  7.880149821697396E-02,  9.763114142118563E-02,  2.614843928314085E+02,
2463671.520000000, A.D. 2033-Mar-15 00:28:48.0000,  2.380757448431152E-01,  6.011205221843691E-02,  2.852783592174664E+01,  7.518872264432582E+01,  2.386284717771775E+02,  2.463548060982287E+06,  1.374307152046580E+00,  1.696706110277588E+02,  1.734460895641788E+02,  7.889505001525314E-02,  9.767804781206937E-02,  2.619501757404799E+02,
2463682.478000000, A.D. 2033-Mar-25 23:28:19.2000,  2.378104845449300E-01,  6.015113627436022E-02,  2.846801298808343E+01,  7.499599156202275E+01,  2.392608130940918E+02,  2.463810601627193E+06,  1.373684956989619E+00,  1.839985006900564E+02,  1.825353378666977E+02,  7.891887129731326E-02,  9.768660632026629E-02,  2.620688231084127E+02,
